start=new Date('2022-01-09T00:00:00.000Z').valueOf();
sats=[{"RCS_SIZE":"LARGE","PERIOD":"95.592","REF_FRAME":"TEME","OBJECT_ID":"2021-009U","ARG_OF_PERICENTER":"66.4686","ELEMENT_SET_NO":"999","EPHEMERIS_TYPE":"0","APOAPSIS":"548.380","EPOCH":"2022-01-08T08:27:27.324576","MEAN_ANOMALY":"293.6477","REV_AT_EPOCH":"5177","MEAN_MOTION_DOT":"0.00000857","LAUNCH_DATE":"2021-02-04","CLASSIFICATION_TYPE":"U","FILE":"3267276","OBJECT_NAME":"STARLINK-1965","ECCENTRICITY":"0.00016610","RA_OF_ASC_NODE":"351.1647","NORAD_CAT_ID":"47566","TLE_LINE2":"2 47566  53.0564 351.1647 0001661  66.4686 293.6477 15.06394731 51777","PERIAPSIS":"546.079","OBJECT_TYPE":"PAYLOAD","MEAN_ELEMENT_THEORY":"SGP4","MEAN_MOTION_DDOT":"0.0000000000000","INCLINATION":"53.0564","CENTER_NAME":"EARTH","DECAY_DATE":null,"TLE_LINE1":"1 47566U 21009U   22008.35239959  .00000857  00000-0  76428-4 0  9998","BSTAR":"0.00007642800000","TIME_SYSTEM":"UTC","COUNTRY_CODE":"US","MEAN_MOTION":"15.06394731","GP_ID":"193460330","SITE":"AFETR","SEMIMAJOR_AXIS":"6925.365"},{"EPOCH":"2022-01-08T18:53:46.692672","ELEMENT_SET_NO":"999","EPHEMERIS_TYPE":"0","APOAPSIS":"548.209","MEAN_ANOMALY":"295.0935","PERIOD":"95.592","RCS_SIZE":"LARGE","REF_FRAME":"TEME","ARG_OF_PERICENTER":"65.0204","OBJECT_ID":"2021-009V","CLASSIFICATION_TYPE":"U","FILE":"3267514","OBJECT_NAME":"STARLINK-1966","ECCENTRICITY":"0.00014410","RA_OF_ASC_NODE":"29.2217","MEAN_MOTION_DOT":"0.00002509","REV_AT_EPOCH":"5127","LAUNCH_DATE":"2021-02-04","MEAN_MOTION_DDOT":"0.0000000000000","INCLINATION":"53.0566","MEAN_ELEMENT_THEORY":"SGP4","OBJECT_TYPE":"PAYLOAD","DECAY_DATE":null,"CENTER_NAME":"EARTH","NORAD_CAT_ID":"47567","TLE_LINE2":"2 47567  53.0566  29.2217 0001441  65.0204 295.0935 15.06400671 51274","PERIAPSIS":"546.214","MEAN_MOTION":"15.06400671","SEMIMAJOR_AXIS":"6925.347","GP_ID":"193490913","SITE":"AFETR","BSTAR":"0.00018728000000","TLE_LINE1":"1 47567U 21009V   22008.78734598  .00002509  00000-0  18728-3 0  9999","TIME_SYSTEM":"UTC","COUNTRY_CODE":"US"},{"EPOCH":"2022-01-08T17:55:23.050848","EPHEMERIS_TYPE":"0","APOAPSIS":"548.190","ELEMENT_SET_NO":"999","MEAN_ANOMALY":"290.2255","REF_FRAME":"TEME","RCS_SIZE":"LARGE","PERIOD":"95.592","ARG_OF_PERICENTER":"69.8886","OBJECT_ID":"2021-009W","FILE":"3267514","OBJECT_NAME":"STARLINK-1967","CLASSIFICATION_TYPE":"U","RA_OF_ASC_NODE":"29.3992","ECCENTRICITY":"0.00014140","LAUNCH_DATE":"2021-02-04","REV_AT_EPOCH":"5127","MEAN_MOTION_DOT":"0.00000358","INCLINATION":"53.0553","MEAN_MOTION_DDOT":"0.0000000000000","OBJECT_TYPE":"PAYLOAD","MEAN_ELEMENT_THEORY":"SGP4","DECAY_DATE":null,"CENTER_NAME":"EARTH","TLE_LINE2":"2 47568  53.0553  29.3992 0001414  69.8886 290.2255 15.06400875 51278","NORAD_CAT_ID":"47568","PERIAPSIS":"546.232","MEAN_MOTION":"15.06400875","SEMIMAJOR_AXIS":"6925.346","GP_ID":"193491664","SITE":"AFETR","TIME_SYSTEM":"UTC","TLE_LINE1":"1 47568U 21009W   22008.74679457  .00000358  00000-0  42939-4 0  9990","BSTAR":"0.00004293900000","COUNTRY_CODE":"US"},{"REV_AT_EPOCH":"5184","MEAN_MOTION_DOT":"0.00002926","LAUNCH_DATE":"2021-02-04","ECCENTRICITY":"0.00029590","RA_OF_ASC_NODE":"348.8547","CLASSIFICATION_TYPE":"U","FILE":"3267514","OBJECT_NAME":"STARLINK-1968","OBJECT_ID":"2021-009X","ARG_OF_PERICENTER":"23.2559","RCS_SIZE":"LARGE","PERIOD":"93.375","REF_FRAME":"TEME","MEAN_ANOMALY":"336.8578","ELEMENT_SET_NO":"999","EPHEMERIS_TYPE":"0","APOAPSIS":"441.721","EPOCH":"2022-01-08T16:09:56.525760","COUNTRY_CODE":"US","TLE_LINE1":"1 47569U 21009X   22008.67357090  .00002926  00000-0  76647-4 0  9995","BSTAR":"0.00007664700000","TIME_SYSTEM":"UTC","GP_ID":"193490412","SITE":"AFETR","SEMIMAJOR_AXIS":"6817.838","MEAN_MOTION":"15.42171648","PERIAPSIS":"437.686","NORAD_CAT_ID":"47569","TLE_LINE2":"2 47569  53.0539 348.8547 0002959  23.2559 336.8578 15.42171648 51845","CENTER_NAME":"EARTH","DECAY_DATE":null,"OBJECT_TYPE":"PAYLOAD","MEAN_ELEMENT_THEORY":"SGP4","MEAN_MOTION_DDOT":"0.0000000000000","INCLINATION":"53.0539"},{"SEMIMAJOR_AXIS":"6925.388","GP_ID":"193490662","SITE":"AFETR","MEAN_MOTION":"15.06387039","COUNTRY_CODE":"US","TIME_SYSTEM":"UTC","BSTAR":"0.00001878800000","TLE_LINE1":"1 47570U 21009Y   22008.67309780 -.00000002  00000-0  18788-4 0  9996","DECAY_DATE":null,"CENTER_NAME":"EARTH","INCLINATION":"53.0553","MEAN_MOTION_DDOT":"0.0000000000000","MEAN_ELEMENT_THEORY":"SGP4","OBJECT_TYPE":"PAYLOAD","PERIAPSIS":"546.036","TLE_LINE2":"2 47570  53.0553 349.7283 0001758  66.7196 293.3978 15.06387039 51827","NORAD_CAT_ID":"47570","RA_OF_ASC_NODE":"349.7283","ECCENTRICITY":"0.00017580","FILE":"3267514","OBJECT_NAME":"STARLINK-1969","CLASSIFICATION_TYPE":"U","LAUNCH_DATE":"2021-02-04","REV_AT_EPOCH":"5182","MEAN_MOTION_DOT":"-0.00000002","MEAN_ANOMALY":"293.3978","EPOCH":"2022-01-08T16:09:15.649920","EPHEMERIS_TYPE":"0","APOAPSIS":"548.471","ELEMENT_SET_NO":"999","ARG_OF_PERICENTER":"66.7196","OBJECT_ID":"2021-009Y","REF_FRAME":"TEME","PERIOD":"95.593","RCS_SIZE":"LARGE"},{"CENTER_NAME":"EARTH","DECAY_DATE":null,"OBJECT_TYPE":"PAYLOAD","MEAN_ELEMENT_THEORY":"SGP4","INCLINATION":"53.0552","MEAN_MOTION_DDOT":"0.0000000000000","PERIAPSIS":"545.998","NORAD_CAT_ID":"47571","TLE_LINE2":"2 47571  53.0552 359.6907 0001782  67.6997 292.4181 15.06394097 51688","SITE":"AFETR","GP_ID":"193491414","SEMIMAJOR_AXIS":"6925.367","MEAN_MOTION":"15.06394097","COUNTRY_CODE":"US","BSTAR":"0.00021871000000","TLE_LINE1":"1 47571U 21009Z   22008.68322259  .00002977  00000-0  21871-3 0  9992","TIME_SYSTEM":"UTC","MEAN_ANOMALY":"292.4181","ELEMENT_SET_NO":"999","EPHEMERIS_TYPE":"0","APOAPSIS":"548.466","EPOCH":"2022-01-08T16:23:50.431776","OBJECT_ID":"2021-009Z","ARG_OF_PERICENTER":"67.6997","RCS_SIZE":"LARGE","PERIOD":"95.593","REF_FRAME":"TEME","ECCENTRICITY":"0.00017820","RA_OF_ASC_NODE":"359.6907","CLASSIFICATION_TYPE":"U","FILE":"3267514","OBJECT_NAME":"STARLINK-1970","MEAN_MOTION_DOT":"0.00002977","REV_AT_EPOCH":"5168","LAUNCH_DATE":"2021-02-04"},{"MEAN_ANOMALY":"292.7255","EPOCH":"2022-01-08T15:57:19.197792","APOAPSIS":"548.490","EPHEMERIS_TYPE":"0","ELEMENT_SET_NO":"999","ARG_OF_PERICENTER":"67.3926","OBJECT_ID":"2021-009AA","REF_FRAME":"TEME","RCS_SIZE":"LARGE","PERIOD":"95.592","RA_OF_ASC_NODE":"359.7594","ECCENTRICITY":"0.00018220","FILE":"3267514","OBJECT_NAME":"STARLINK-1971","CLASSIFICATION_TYPE":"U","LAUNCH_DATE":"2021-02-04","MEAN_MOTION_DOT":"0.00001377","REV_AT_EPOCH":"5168","DECAY_DATE":null,"CENTER_NAME":"EARTH","MEAN_MOTION_DDOT":"0.0000000000000","INCLINATION":"53.0582","OBJECT_TYPE":"PAYLOAD","MEAN_ELEMENT_THEORY":"SGP4","PERIAPSIS":"545.967","TLE_LINE2":"2 47572  53.0582 359.7594 0001822  67.3926 292.7255 15.06395153 51688","NORAD_CAT_ID":"47572","SEMIMAJOR_AXIS":"6925.363","SITE":"AFETR","GP_ID":"193491164","MEAN_MOTION":"15.06395153","COUNTRY_CODE":"US","TIME_SYSTEM":"UTC","BSTAR":"0.00011137000000","TLE_LINE1":"1 47572U 21009AA  22008.66480553  .00001377  00000-0  11137-3 0  9990"},{"TIME_SYSTEM":"UTC","BSTAR":"0.00004846700000","TLE_LINE1":"1 47573U 21009AB  22008.70901867  .00000440  00000-0  48467-4 0  9999","COUNTRY_CODE":"US","MEAN_MOTION":"15.06399207","SITE":"AFETR","GP_ID":"193489912","SEMIMAJOR_AXIS":"6925.351","TLE_LINE2":"2 47573  53.0571 359.5592 0001634  65.7010 294.4149 15.06399207 51685","NORAD_CAT_ID":"47573","PERIAPSIS":"546.084","OBJECT_TYPE":"PAYLOAD","MEAN_ELEMENT_THEORY":"SGP4","INCLINATION":"53.0571","MEAN_MOTION_DDOT":"0.0000000000000","CENTER_NAME":"EARTH","DECAY_DATE":null,"LAUNCH_DATE":"2021-02-04","MEAN_MOTION_DOT":"0.00000440","REV_AT_EPOCH":"5168","OBJECT_NAME":"STARLINK-1975","FILE":"3267514","CLASSIFICATION_TYPE":"U","RA_OF_ASC_NODE":"359.5592","ECCENTRICITY":"0.00016340","REF_FRAME":"TEME","RCS_SIZE":"LARGE","PERIOD":"95.592","OBJECT_ID":"2021-009AB","ARG_OF_PERICENTER":"65.7010","APOAPSIS":"548.348","EPHEMERIS_TYPE":"0","ELEMENT_SET_NO":"999","EPOCH":"2022-01-08T17:00:59.213088","MEAN_ANOMALY":"294.4149"},{"ARG_OF_PERICENTER":"67.1464","OBJECT_ID":"2021-009AC","REF_FRAME":"TEME","PERIOD":"95.592","RCS_SIZE":"LARGE","MEAN_ANOMALY":"292.9673","EPOCH":"2022-01-08T18:59:04.980768","APOAPSIS":"548.190","EPHEMERIS_TYPE":"0","ELEMENT_SET_NO":"999","LAUNCH_DATE":"2021-02-04","REV_AT_EPOCH":"5127","MEAN_MOTION_DOT":"0.00002225","RA_OF_ASC_NODE":"29.1953","ECCENTRICITY":"0.00014000","OBJECT_NAME":"STARLINK-1976","FILE":"3267514","CLASSIFICATION_TYPE":"U","PERIAPSIS":"546.251","TLE_LINE2":"2 47574  53.0567  29.1953 0001400  67.1464 292.9673 15.06397813 51273","NORAD_CAT_ID":"47574","DECAY_DATE":null,"CENTER_NAME":"EARTH","INCLINATION":"53.0567","MEAN_MOTION_DDOT":"0.0000000000000","OBJECT_TYPE":"PAYLOAD","MEAN_ELEMENT_THEORY":"SGP4","COUNTRY_CODE":"US","TIME_SYSTEM":"UTC","BSTAR":"0.00016824000000","TLE_LINE1":"1 47574U 21009AC  22008.79102987  .00002225  00000-0  16824-3 0  9999","SEMIMAJOR_AXIS":"6925.355","SITE":"AFETR","GP_ID":"193490162","MEAN_MOTION":"15.06397813"},{"LAUNCH_DATE":"2021-02-04","REV_AT_EPOCH":"5127","MEAN_MOTION_DOT":"0.00001557","FILE":"3267514","OBJECT_NAME":"STARLINK-1977","CLASSIFICATION_TYPE":"U","RA_OF_ASC_NODE":"29.2447","ECCENTRICITY":"0.00013190","REF_FRAME":"TEME","PERIOD":"95.593","RCS_SIZE":"LARGE","ARG_OF_PERICENTER":"73.4683","OBJECT_ID":"2021-009AD","EPOCH":"2022-01-08T18:43:10.035264","EPHEMERIS_TYPE":"0","APOAPSIS":"548.153","ELEMENT_SET_NO":"999","MEAN_ANOMALY":"286.6451","TIME_SYSTEM":"UTC","BSTAR":"0.00012342000000","TLE_LINE1":"1 47575U 21009AD  22008.77997726  .00001557  00000-0  12342-3 0  9999","COUNTRY_CODE":"US","MEAN_MOTION":"15.06391400","SEMIMAJOR_AXIS":"6925.375","SITE":"AFETR","GP_ID":"193490914","TLE_LINE2":"2 47575  53.0563  29.2447 0001319  73.4683 286.6451 15.06391400 51271","NORAD_CAT_ID":"47575","PERIAPSIS":"546.326","INCLINATION":"53.0563","MEAN_MOTION_DDOT":"0.0000000000000","OBJECT_TYPE":"PAYLOAD","MEAN_ELEMENT_THEORY":"SGP4","DECAY_DATE":null,"CENTER_NAME":"EARTH"}];
